[{"OBJECT_NAME":"ONEWEB-0121","OBJECT_ID":"2020-100K","EPOCH":"2026-03-09T21:07:07.904640","MEAN_MOTION":13.12443616,"ECCENTRICITY":0.00017173,"INCLINATION":87.9005,"RA_OF_ASC_NODE":10.3639,"ARG_OF_PERICENTER":85.1822,"MEAN_ANOMALY":274.9502,"EPHEMERIS_TYPE":0,"CLASSIFICATION_TYPE":"U","NORAD_CAT_ID":47267,"ELEMENT_SET_NO":999,"REV_AT_EPOCH":25161,"BSTAR":9.9244653e-5,"MEAN_MOTION_DOT":4.8e-7,"MEAN_MOTION_DDOT":0},{"OBJECT_NAME":"COSMOS 839 DEB","OBJECT_ID":"1976-067AM","EPOCH":"2026-03-09T20:46:32.528064","MEAN_MOTION":12.63020635,"ECCENTRICITY":0.07008531,"INCLINATION":65.7986,"RA_OF_ASC_NODE":264.2188,"ARG_OF_PERICENTER":176.3288,"MEAN_ANOMALY":184.3265,"EPHEMERIS_TYPE":0,"CLASSIFICATION_TYPE":"U","NORAD_CAT_ID":10613,"ELEMENT_SET_NO":999,"REV_AT_EPOCH":27673,"BSTAR":0.0012208349,"MEAN_MOTION_DOT":5.15e-6,"MEAN_MOTION_DDOT":0}]
